{"type": "FeatureCollection", "features": [ {"type": "Feature", "properties": {"norad_id": 41556, "name": "ZIYUAN 3-02 (ZY 3-02)", "group": "resource", "lat": -14.35585830281216, "lon": 67.45047325071378, "alt_km": 510.531160062862, "timestamp": "2025-12-17T10:52:54.006318+00:00", "meta": {"OBJECT_NAME": "ZIYUAN 3-02 (ZY 3-02)", "OBJECT_ID": "2016-033A", "EPOCH": "2025-12-16T23:53:37.266144", "MEAN_MOTION": 15.21118517, "ECCENTRICITY": 0.00108108, "INCLINATION": 97.4045, "RA_OF_ASC_NODE": 65.093, "ARG_OF_PERICENTER": 230.5871, "MEAN_ANOMALY": 129.4408, "EPHEMERIS_TYPE": 0, "CLASSIFICATION_TYPE": "U", "NORAD_CAT_ID": 41556, "ELEMENT_SET_NO": 999, "REV_AT_EPOCH": 53028, "BSTAR": 0.00026612682, "MEAN_MOTION_DOT": 5.861e-05, "MEAN_MOTION_DDOT": 0}, "tle": {"line1": "1 41556U 16033A   25350.99557021  .00005861  00000+0  26613-3 0  9997", "line2": "2 41556  97.4045  65.0930 0010810 230.5871 129.4408 15.21118517530289"}}, "geometry": {"type": "Point", "coordinates": [67.45047325071378, -14.35585830281216]}}, {"type": "Feature", "properties": {"norad_id": 41599, "name": "CARTOSAT-2C", "group": "resource", "lat": -71.11161206462639, "lon": -153.91697946241578, "alt_km": 522.9288729796071, "timestamp": "2025-12-17T10:52:54.006328+00:00", "meta": {"OBJECT_NAME": "CARTOSAT-2C", "OBJECT_ID": "2016-040A", "EPOCH": "2025-12-16T22:42:26.864928", "MEAN_MOTION": 15.19147403, "ECCENTRICITY": 0.00114454, "INCLINATION": 97.477, "RA_OF_ASC_NODE": 48.1536, "ARG_OF_PERICENTER": 50.4214, "MEAN_ANOMALY": 309.803, "EPHEMERIS_TYPE": 0, "CLASSIFICATION_TYPE": "U", "NORAD_CAT_ID": 41599, "ELEMENT_SET_NO": 999, "REV_AT_EPOCH": 52604, "BSTAR": 5.5221992e-05, "MEAN_MOTION_DOT": 1.093e-05, "MEAN_MOTION_DDOT": 0}, "tle": {"line1": "1 41599U 16040A   25350.94614427  .00001093  00000+0  55222-4 0  9993", "line2": "2 41599  97.4770  48.1536 0011445  50.4214 309.8030 15.19147403526047"}}, "geometry": {"type": "Point", "coordinates": [-153.91697946241578, -71.11161206462639]}}, {"type": "Feature", "properties": {"norad_id": 41601, "name": "SKYSAT-C1", "group": "resource", "lat": 5.263968079140439, "lon": -151.15110627073935, "alt_km": 471.55060070101626, "timestamp": "2025-12-17T10:52:54.006338+00:00", "meta": {"OBJECT_NAME": "SKYSAT-C1", "OBJECT_ID": "2016-040C", "EPOCH": "2025-12-16T15:19:09.708384", "MEAN_MOTION": 15.32662734, "ECCENTRICITY": 0.00019205, "INCLINATION": 96.9824, "RA_OF_ASC_NODE": 27.4326, "ARG_OF_PERICENTER": 3.0572, "MEAN_ANOMALY": 357.0683, "EPHEMERIS_TYPE": 0, "CLASSIFICATION_TYPE": "U", "NORAD_CAT_ID": 41601, "ELEMENT_SET_NO": 999, "REV_AT_EPOCH": 52987, "BSTAR": 0.00024400418, "MEAN_MOTION_DOT": 7.625e-05, "MEAN_MOTION_DDOT": 0}, "tle": {"line1": "1 41601U 16040C   25350.63830681  .00007625  00000+0  24400-3 0  9995", "line2": "2 41601  96.9824  27.4326 0001920   3.0572 357.0683 15.32662734529877"}}, "geometry": {"type": "Point", "coordinates": [-151.15110627073935, 5.263968079140439]}}, {"type": "Feature", "properties": {"norad_id": 41603, "name": "LAPAN-A3", "group": "resource", "lat": -58.98745173194388, "lon": 0.8782348028848439, "alt_km": 472.14313159323683, "timestamp": "2025-12-17T10:52:54.006349+00:00", "meta": {"OBJECT_NAME": "LAPAN-A3", "OBJECT_ID": "2016-040E", "EPOCH": "2025-12-17T00:09:56.033856", "MEAN_MOTION": 15.31587677, "ECCENTRICITY": 0.00092039, "INCLINATION": 97.1424, "RA_OF_ASC_NODE": 348.4081, "ARG_OF_PERICENTER": 316.8453, "MEAN_ANOMALY": 43.2067, "EPHEMERIS_TYPE": 0, "CLASSIFICATION_TYPE": "U", "NORAD_CAT_ID": 41603, "ELEMENT_SET_NO": 999, "REV_AT_EPOCH": 52691, "BSTAR": 0.00011559676, "MEAN_MOTION_DOT": 3.455e-05, "MEAN_MOTION_DDOT": 0}, "tle": {"line1": "1 41603U 16040E   25351.00689854  .00003455  00000+0  11560-3 0  9993", "line2": "2 41603  97.1424 348.4081 0009203 316.8453  43.2067 15.31587677526910"}}, "geometry": {"type": "Point", "coordinates": [0.8782348028848439, -58.98745173194388]}}, {"type": "Feature", "properties": {"norad_id": 41604, "name": "BIROS", "group": "resource", "lat": 43.95717875574185, "lon": 16.210314359366894, "alt_km": 294.55774027777625, "timestamp": "2025-12-17T10:52:54.006360+00:00", "meta": {"OBJECT_NAME": "BIROS", "OBJECT_ID": "2016-040F", "EPOCH": "2025-12-16T19:36:15.450336", "MEAN_MOTION": 15.91277947, "ECCENTRICITY": 0.00038061, "INCLINATION": 97.0679, "RA_OF_ASC_NODE": 22.418, "ARG_OF_PERICENTER": 138.0026, "MEAN_ANOMALY": 222.1541, "EPHEMERIS_TYPE": 0, "CLASSIFICATION_TYPE": "U", "NORAD_CAT_ID": 41604, "ELEMENT_SET_NO": 999, "REV_AT_EPOCH": 52937, "BSTAR": 0.00057588511, "MEAN_MOTION_DOT": 0.00182143, "MEAN_MOTION_DDOT": 1.4118968e-05}, "tle": {"line1": "1 41604U 16040F   25350.81684549  .00182143  14119-4  57589-3 0  9992", "line2": "2 41604  97.0679  22.4180 0003806 138.0026 222.1541 15.91277947529374"}}, "geometry": {"type": "Point", "coordinates": [16.210314359366894, 43.95717875574185]}}, {"type": "Feature", "properties": {"norad_id": 41727, "name": "GAOFEN-3", "group": "resource", "lat": 3.7890572492071963, "lon": -3.592819906654448, "alt_km": 753.088642906273, "timestamp": "2025-12-17T10:52:54.006370+00:00", "meta": {"OBJECT_NAME": "GAOFEN-3", "OBJECT_ID": "2016-049A", "EPOCH": "2025-12-16T23:12:30.413088", "MEAN_MOTION": 14.42214902, "ECCENTRICITY": 0.00013032, "INCLINATION": 98.4041, "RA_OF_ASC_NODE": 356.4892, "ARG_OF_PERICENTER": 59.3245, "MEAN_ANOMALY": 300.8073, "EPHEMERIS_TYPE": 0, "CLASSIFICATION_TYPE": "U", "NORAD_CAT_ID": 41727, "ELEMENT_SET_NO": 999, "REV_AT_EPOCH": 49238, "BSTAR": 3.8455538e-05, "MEAN_MOTION_DOT": 8.3e-07, "MEAN_MOTION_DDOT": 0}, "tle": {"line1": "1 41727U 16049A   25350.96701867  .00000083  00000+0  38456-4 0  9990", "line2": "2 41727  98.4041 356.4892 0001303  59.3245 300.8073 14.42214902492387"}}, "geometry": {"type": "Point", "coordinates": [-3.592819906654448, 3.7890572492071963]}}, {"type": "Feature", "properties": {"norad_id": 41771, "name": "SKYSAT-C4", "group": "resource", "lat": -82.05713229942712, "lon": 77.1828469356143, "alt_km": 447.51259444872267, "timestamp": "2025-12-17T10:52:54.006380+00:00", "meta": {"OBJECT_NAME": "SKYSAT-C4", "OBJECT_ID": "2016-058B", "EPOCH": "2025-12-16T19:41:02.956704", "MEAN_MOTION": 15.42367305, "ECCENTRICITY": 0.00019044, "INCLINATION": 96.9372, "RA_OF_ASC_NODE": 15.8097, "ARG_OF_PERICENTER": 132.1599, "MEAN_ANOMALY": 227.9811, "EPHEMERIS_TYPE": 0, "CLASSIFICATION_TYPE": "U", "NORAD_CAT_ID": 41771, "ELEMENT_SET_NO": 999, "REV_AT_EPOCH": 51730, "BSTAR": 0.00029162362, "MEAN_MOTION_DOT": 0.00012509, "MEAN_MOTION_DDOT": 0}, "tle": {"line1": "1 41771U 16058B   25350.82017311  .00012509  00000+0  29162-3 0  9997", "line2": "2 41771  96.9372  15.8097 0001904 132.1599 227.9811 15.42367305517304"}}, "geometry": {"type": "Point", "coordinates": [77.1828469356143, -82.05713229942712]}}, {"type": "Feature", "properties": {"norad_id": 41772, "name": "SKYSAT-C5", "group": "resource", "lat": 50.0213507301426, "lon": 26.489570546418562, "alt_km": 461.44138497107724, "timestamp": "2025-12-17T10:52:54.006390+00:00", "meta": {"OBJECT_NAME": "SKYSAT-C5", "OBJECT_ID": "2016-058C", "EPOCH": "2025-12-16T17:26:25.317024", "MEAN_MOTION": 15.33949405, "ECCENTRICITY": 0.00037893, "INCLINATION": 97.0759, "RA_OF_ASC_NODE": 34.3128, "ARG_OF_PERICENTER": 274.956, "MEAN_ANOMALY": 85.1251, "EPHEMERIS_TYPE": 0, "CLASSIFICATION_TYPE": "U", "NORAD_CAT_ID": 41772, "ELEMENT_SET_NO": 999, "REV_AT_EPOCH": 51577, "BSTAR": 0.00026050494, "MEAN_MOTION_DOT": 8.483e-05, "MEAN_MOTION_DDOT": 0}, "tle": {"line1": "1 41772U 16058C   25350.72668191  .00008483  00000+0  26050-3 0  9994", "line2": "2 41772  97.0759  34.3128 0003789 274.9560  85.1251 15.33949405515771"}}, "geometry": {"type": "Point", "coordinates": [26.489570546418562, 50.0213507301426]}}, {"type": "Feature", "properties": {"norad_id": 41773, "name": "SKYSAT-C2", "group": "resource", "lat": 64.9421692252963, "lon": -148.90148062433508, "alt_km": 447.6700225383702, "timestamp": "2025-12-17T10:52:54.006400+00:00", "meta": {"OBJECT_NAME": "SKYSAT-C2", "OBJECT_ID": "2016-058D", "EPOCH": "2025-12-16T23:27:09.471744", "MEAN_MOTION": 15.37367852, "ECCENTRICITY": 0.00037869, "INCLINATION": 97.0359, "RA_OF_ASC_NODE": 15.3249, "ARG_OF_PERICENTER": 23.6804, "MEAN_ANOMALY": 336.4615, "EPHEMERIS_TYPE": 0, "CLASSIFICATION_TYPE": "U", "NORAD_CAT_ID": 41773, "ELEMENT_SET_NO": 999, "REV_AT_EPOCH": 51701, "BSTAR": 0.00027080617, "MEAN_MOTION_DOT": 9.845e-05, "MEAN_MOTION_DDOT": 0}, "tle": {"line1": "1 41773U 16058D   25350.97719296  .00009845  00000+0  27081-3 0  9993", "line2": "2 41773  97.0359  15.3249 0003786  23.6804 336.4615 15.37367852517017"}}, "geometry": {"type": "Point", "coordinates": [-148.90148062433508, 64.9421692252963]}}, {"type": "Feature", "properties": {"norad_id": 41774, "name": "SKYSAT-C3", "group": "resource", "lat": 62.94406031827435, "lon": 11.204371754837293, "alt_km": 425.63341905157813, "timestamp": "2025-12-17T10:52:54.006410+00:00", "meta": {"OBJECT_NAME": "SKYSAT-C3", "OBJECT_ID": "2016-058E", "EPOCH": "2025-12-16T15:56:52.830240", "MEAN_MOTION": 15.44537188, "ECCENTRICITY": 0.00018278, "INCLINATION": 96.9298, "RA_OF_ASC_NODE": 24.2283, "ARG_OF_PERICENTER": 107.3636, "MEAN_ANOMALY": 252.7813, "EPHEMERIS_TYPE": 0, "CLASSIFICATION_TYPE": "U", "NORAD_CAT_ID": 41774, "ELEMENT_SET_NO": 999, "REV_AT_EPOCH": 51786, "BSTAR": 0.00033940437, "MEAN_MOTION_DOT": 0.00015682, "MEAN_MOTION_DDOT": 0}, "tle": {"line1": "1 41774U 16058E   25350.66450035  .00015682  00000+0  33940-3 0  9990", "line2": "2 41774  96.9298  24.2283 0001827 107.3636 252.7813 15.44537188517864"}}, "geometry": {"type": "Point", "coordinates": [11.204371754837293, 62.94406031827435]}}]}